{"type": "FeatureCollection", "features": [ {"type": "Feature", "properties": {"norad_id": 30295, "name": "FENGYUN 1C DEB", "group": "fengyun-1c-debris", "lat": -81.2120145129863, "lon": 126.83553509355261, "alt_km": 863.517326641323, "timestamp": "2025-12-26T07:29:18.730962+00:00", "meta": {"OBJECT_NAME": "FENGYUN 1C DEB", "OBJECT_ID": "1999-025ZG", "EPOCH": "2025-12-25T18:41:53.788128", "MEAN_MOTION": 14.25054373, "ECCENTRICITY": 0.00941503, "INCLINATION": 98.5073, "RA_OF_ASC_NODE": 21.8303, "ARG_OF_PERICENTER": 44.7639, "MEAN_ANOMALY": 11.336, "EPHEMERIS_TYPE": 0, "CLASSIFICATION_TYPE": "U", "NORAD_CAT_ID": 30295, "ELEMENT_SET_NO": 999, "REV_AT_EPOCH": 98362, "BSTAR": 0.00016399124, "MEAN_MOTION_DOT": 3.6e-06, "MEAN_MOTION_DDOT": 0}, "tle": {"line1": "1 30295U 99025ZG  25359.77909477  .00000360  00000+0  16399-3 0  9997", "line2": "2 30295  98.5073  21.8303 0094150  44.7639  11.3360 14.25054373983628"}}, "geometry": {"type": "Point", "coordinates": [126.83553509355261, -81.2120145129863]}}, {"type": "Feature", "properties": {"norad_id": 30297, "name": "FENGYUN 1C DEB", "group": "fengyun-1c-debris", "lat": 51.60377503973673, "lon": -59.40453650736981, "alt_km": 562.5513861332602, "timestamp": "2025-12-26T07:29:18.730972+00:00", "meta": {"OBJECT_NAME": "FENGYUN 1C DEB", "OBJECT_ID": "1999-025ZJ", "EPOCH": "2025-12-25T19:41:04.816032", "MEAN_MOTION": 14.21953125, "ECCENTRICITY": 0.03795814, "INCLINATION": 98.8135, "RA_OF_ASC_NODE": 311.3928, "ARG_OF_PERICENTER": 77.9148, "MEAN_ANOMALY": 340.0827, "EPHEMERIS_TYPE": 0, "CLASSIFICATION_TYPE": "U", "NORAD_CAT_ID": 30297, "ELEMENT_SET_NO": 999, "REV_AT_EPOCH": 95338, "BSTAR": 0.0017908413, "MEAN_MOTION_DOT": 8.254e-05, "MEAN_MOTION_DDOT": 0}, "tle": {"line1": "1 30297U 99025ZJ  25359.82019463  .00008254  00000+0  17908-2 0  9998", "line2": "2 30297  98.8135 311.3928 0379581  77.9148 340.0827 14.21953125953388"}}, "geometry": {"type": "Point", "coordinates": [-59.40453650736981, 51.60377503973673]}}, {"type": "Feature", "properties": {"norad_id": 30298, "name": "FENGYUN 1C DEB", "group": "fengyun-1c-debris", "lat": 25.360919057898485, "lon": 87.17242257420801, "alt_km": 809.4151293446603, "timestamp": "2025-12-26T07:29:18.730983+00:00", "meta": {"OBJECT_NAME": "FENGYUN 1C DEB", "OBJECT_ID": "1999-025ZK", "EPOCH": "2025-12-25T20:06:10.620288", "MEAN_MOTION": 14.20033792, "ECCENTRICITY": 0.00472254, "INCLINATION": 99.0006, "RA_OF_ASC_NODE": 90.9986, "ARG_OF_PERICENTER": 91.3304, "MEAN_ANOMALY": 31.1217, "EPHEMERIS_TYPE": 0, "CLASSIFICATION_TYPE": "U", "NORAD_CAT_ID": 30298, "ELEMENT_SET_NO": 999, "REV_AT_EPOCH": 97020, "BSTAR": 0.0018136384, "MEAN_MOTION_DOT": 3.859e-05, "MEAN_MOTION_DDOT": 0}, "tle": {"line1": "1 30298U 99025ZK  25359.83762292  .00003859  00000+0  18136-2 0  9995", "line2": "2 30298  99.0006  90.9986 0047225  91.3304  31.1217 14.20033792970203"}}, "geometry": {"type": "Point", "coordinates": [87.17242257420801, 25.360919057898485]}}, {"type": "Feature", "properties": {"norad_id": 30299, "name": "FENGYUN 1C DEB", "group": "fengyun-1c-debris", "lat": 10.744815661586898, "lon": 70.89516128177041, "alt_km": 811.8885642807991, "timestamp": "2025-12-26T07:29:18.730993+00:00", "meta": {"OBJECT_NAME": "FENGYUN 1C DEB", "OBJECT_ID": "1999-025ZL", "EPOCH": "2025-12-23T11:18:11.262816", "MEAN_MOTION": 14.07797987, "ECCENTRICITY": 0.01031259, "INCLINATION": 99.093, "RA_OF_ASC_NODE": 69.7764, "ARG_OF_PERICENTER": 337.5048, "MEAN_ANOMALY": 41.8846, "EPHEMERIS_TYPE": 0, "CLASSIFICATION_TYPE": "U", "NORAD_CAT_ID": 30299, "ELEMENT_SET_NO": 999, "REV_AT_EPOCH": 96441, "BSTAR": 0.0013100983, "MEAN_MOTION_DOT": 2.284e-05, "MEAN_MOTION_DDOT": 0}, "tle": {"line1": "1 30299U 99025ZL  25357.47096369  .00002284  00000+0  13101-2 0  9997", "line2": "2 30299  99.0930  69.7764 0103125 337.5048  41.8846 14.07797987964410"}}, "geometry": {"type": "Point", "coordinates": [70.89516128177041, 10.744815661586898]}}, {"type": "Feature", "properties": {"norad_id": 30300, "name": "FENGYUN 1C DEB", "group": "fengyun-1c-debris", "lat": 35.947232471082145, "lon": 63.47027560256881, "alt_km": 842.0452986361206, "timestamp": "2025-12-26T07:29:18.731003+00:00", "meta": {"OBJECT_NAME": "FENGYUN 1C DEB", "OBJECT_ID": "1999-025ZM", "EPOCH": "2025-12-22T16:31:21.679104", "MEAN_MOTION": 14.26932196, "ECCENTRICITY": 0.00761124, "INCLINATION": 99.04, "RA_OF_ASC_NODE": 66.3568, "ARG_OF_PERICENTER": 265.3319, "MEAN_ANOMALY": 246.7293, "EPHEMERIS_TYPE": 0, "CLASSIFICATION_TYPE": "U", "NORAD_CAT_ID": 30300, "ELEMENT_SET_NO": 999, "REV_AT_EPOCH": 97126, "BSTAR": 0.0021539123, "MEAN_MOTION_DOT": 5.352e-05, "MEAN_MOTION_DDOT": 0}, "tle": {"line1": "1 30300U 99025ZM  25356.68844536  .00005352  00000+0  21539-2 0  9992", "line2": "2 30300  99.0400  66.3568 0076112 265.3319 246.7293 14.26932196971261"}}, "geometry": {"type": "Point", "coordinates": [63.47027560256881, 35.947232471082145]}}, {"type": "Feature", "properties": {"norad_id": 30301, "name": "FENGYUN 1C DEB", "group": "fengyun-1c-debris", "lat": 38.086897573962716, "lon": 145.000487250452, "alt_km": 754.0598826493033, "timestamp": "2025-12-26T07:29:18.731013+00:00", "meta": {"OBJECT_NAME": "FENGYUN 1C DEB", "OBJECT_ID": "1999-025ZN", "EPOCH": "2025-12-25T03:28:42.426336", "MEAN_MOTION": 14.53401933, "ECCENTRICITY": 0.00693099, "INCLINATION": 98.6349, "RA_OF_ASC_NODE": 150.6381, "ARG_OF_PERICENTER": 252.2085, "MEAN_ANOMALY": 163.052, "EPHEMERIS_TYPE": 0, "CLASSIFICATION_TYPE": "U", "NORAD_CAT_ID": 30301, "ELEMENT_SET_NO": 999, "REV_AT_EPOCH": 97397, "BSTAR": 0.0048942674, "MEAN_MOTION_DOT": 0.00021035, "MEAN_MOTION_DDOT": 0}, "tle": {"line1": "1 30301U 99025ZN  25359.14493549  .00021035  00000+0  48943-2 0  9995", "line2": "2 30301  98.6349 150.6381 0069309 252.2085 163.0520 14.53401933973978"}}, "geometry": {"type": "Point", "coordinates": [145.000487250452, 38.086897573962716]}}, {"type": "Feature", "properties": {"norad_id": 30302, "name": "FENGYUN 1C DEB", "group": "fengyun-1c-debris", "lat": -25.345584396101778, "lon": -88.50272902990234, "alt_km": 873.1632921546461, "timestamp": "2025-12-26T07:29:18.731023+00:00", "meta": {"OBJECT_NAME": "FENGYUN 1C DEB", "OBJECT_ID": "1999-025ZP", "EPOCH": "2025-12-25T23:06:42.620256", "MEAN_MOTION": 14.12906665, "ECCENTRICITY": 0.01059942, "INCLINATION": 98.5535, "RA_OF_ASC_NODE": 267.0758, "ARG_OF_PERICENTER": 79.7679, "MEAN_ANOMALY": 281.5427, "EPHEMERIS_TYPE": 0, "CLASSIFICATION_TYPE": "U", "NORAD_CAT_ID": 30302, "ELEMENT_SET_NO": 999, "REV_AT_EPOCH": 96230, "BSTAR": 0.0022614317, "MEAN_MOTION_DOT": 4.402e-05, "MEAN_MOTION_DDOT": 0}, "tle": {"line1": "1 30302U 99025ZP  25359.96299329  .00004402  00000+0  22614-2 0  9992", "line2": "2 30302  98.5535 267.0758 0105994  79.7679 281.5427 14.12906665962302"}}, "geometry": {"type": "Point", "coordinates": [-88.50272902990234, -25.345584396101778]}}, {"type": "Feature", "properties": {"norad_id": 30303, "name": "FENGYUN 1C DEB", "group": "fengyun-1c-debris", "lat": -16.316945005637542, "lon": -104.65678026669019, "alt_km": 771.7577412307146, "timestamp": "2025-12-26T07:29:18.731033+00:00", "meta": {"OBJECT_NAME": "FENGYUN 1C DEB", "OBJECT_ID": "1999-025ZQ", "EPOCH": "2025-12-25T17:05:29.348736", "MEAN_MOTION": 14.2597304, "ECCENTRICITY": 0.0077625, "INCLINATION": 99.0183, "RA_OF_ASC_NODE": 77.3908, "ARG_OF_PERICENTER": 245.2124, "MEAN_ANOMALY": 114.0965, "EPHEMERIS_TYPE": 0, "CLASSIFICATION_TYPE": "U", "NORAD_CAT_ID": 30303, "ELEMENT_SET_NO": 999, "REV_AT_EPOCH": 97220, "BSTAR": 0.0026863003, "MEAN_MOTION_DOT": 6.571e-05, "MEAN_MOTION_DDOT": 0}, "tle": {"line1": "1 30303U 99025ZQ  25359.71214524  .00006571  00000+0  26863-2 0  9999", "line2": "2 30303  99.0183  77.3908 0077625 245.2124 114.0965 14.25973040972203"}}, "geometry": {"type": "Point", "coordinates": [-104.65678026669019, -16.316945005637542]}}, {"type": "Feature", "properties": {"norad_id": 30304, "name": "FENGYUN 1C DEB", "group": "fengyun-1c-debris", "lat": -27.95641290818363, "lon": -111.9226729132461, "alt_km": 896.2516532190148, "timestamp": "2025-12-26T07:29:18.731043+00:00", "meta": {"OBJECT_NAME": "FENGYUN 1C DEB", "OBJECT_ID": "1999-025ZR", "EPOCH": "2025-12-23T15:44:28.497696", "MEAN_MOTION": 14.15546458, "ECCENTRICITY": 0.00731313, "INCLINATION": 99.0323, "RA_OF_ASC_NODE": 70.2297, "ARG_OF_PERICENTER": 17.518, "MEAN_ANOMALY": 342.8491, "EPHEMERIS_TYPE": 0, "CLASSIFICATION_TYPE": "U", "NORAD_CAT_ID": 30304, "ELEMENT_SET_NO": 999, "REV_AT_EPOCH": 96973, "BSTAR": 0.0012465796, "MEAN_MOTION_DOT": 2.456e-05, "MEAN_MOTION_DDOT": 0}, "tle": {"line1": "1 30304U 99025ZR  25357.65588539  .00002456  00000+0  12466-2 0  9993", "line2": "2 30304  99.0323  70.2297 0073131  17.5180 342.8491 14.15546458969730"}}, "geometry": {"type": "Point", "coordinates": [-111.9226729132461, -27.95641290818363]}}, {"type": "Feature", "properties": {"norad_id": 30305, "name": "FENGYUN 1C DEB", "group": "fengyun-1c-debris", "lat": 58.32967481946693, "lon": 132.84930037244374, "alt_km": 912.3219857836239, "timestamp": "2025-12-26T07:29:18.731054+00:00", "meta": {"OBJECT_NAME": "FENGYUN 1C DEB", "OBJECT_ID": "1999-025ZS", "EPOCH": "2025-12-25T14:09:17.068032", "MEAN_MOTION": 13.60237709, "ECCENTRICITY": 0.0265867, "INCLINATION": 98.589, "RA_OF_ASC_NODE": 298.0334, "ARG_OF_PERICENTER": 67.5437, "MEAN_ANOMALY": 115.7163, "EPHEMERIS_TYPE": 0, "CLASSIFICATION_TYPE": "U", "NORAD_CAT_ID": 30305, "ELEMENT_SET_NO": 999, "REV_AT_EPOCH": 93948, "BSTAR": 0.00035785, "MEAN_MOTION_DOT": 3.04e-06, "MEAN_MOTION_DDOT": 0}, "tle": {"line1": "1 30305U 99025ZS  25359.58978088  .00000304  00000+0  35785-3 0  9990", "line2": "2 30305  98.5890 298.0334 0265867  67.5437 115.7163 13.60237709939482"}}, "geometry": {"type": "Point", "coordinates": [132.84930037244374, 58.32967481946693]}}]}